OBJECT_NAME,OBJECT_ID,EPOCH,MEAN_MOTION,ECCENTRICITY,INCLINATION,RA_OF_ASC_NODE,ARG_OF_PERICENTER,MEAN_ANOMALY,EPHEMERIS_TYPE,CLASSIFICATION_TYPE,NORAD_CAT_ID,ELEMENT_SET_NO,REV_AT_EPOCH,BSTAR,MEAN_MOTION_DOT,MEAN_MOTION_DDOT
IONOSFERA-M 4,2025-155B,2026-07-14T04:03:27.963360,14.21493158,.0001811,98.6038,156.3142,100.8276,259.3105,0,U,64877,999,5023,.22073E-4,.5E-7,0
MICROCARB,2025-156A,2026-07-14T04:36:08.462304,14.72884450,.0017545,98.0075,271.9080,173.9140,186.2285,0,U,64899,999,5194,.49194E-4,.265E-5,0
CO3D 3,2025-156B,2026-07-14T04:11:57.211008,15.20187092,.0001786,97.4338,273.4799,94.0426,266.1013,0,U,64900,999,5363,.11453E-3,.2411E-4,0
CO3D 4,2025-156C,2026-07-14T02:37:24.282912,15.20203940,.0001585,97.4335,273.4152,155.5050,204.6261,0,U,64901,999,5362,.3524E-4,.695E-5,0
CO3D 2,2025-156D,2026-07-14T04:58:57.345024,15.20196985,.0001236,97.4338,273.4108,88.0839,272.0538,0,U,64902,999,5363,.11289E-3,.2377E-4,0
CO3D 1,2025-156E,2026-07-14T04:59:10.618656,15.20196781,.0001268,97.4336,273.4110,100.3060,259.8318,0,U,64903,999,5363,.11512E-3,.2425E-4,0
PRSC-S1,2025-164A,2026-07-14T04:17:35.308032,15.06630085,.0006534,41.1297,135.7708,191.4390,168.6276,0,U,65055,999,5250,.16173E-3,.2262E-4,0
SENTINEL-6B,2025-264A,2026-07-14T00:31:43.284000,12.80930131,.0007857,66.0413,79.4434,268.7097,91.3018,0,U,66514,999,3060,.71166E-4,-.45E-6,0
CAS500-3,2025-274F,2026-07-13T18:30:14.702400,14.88381724,.0006323,97.7437,122.2175,42.0337,318.1364,0,U,66655,999,3410,.70482E-4,.599E-5,0
CSG-3,2026-001A,2026-07-13T12:40:32.844288,14.82151371,.00015181,97.8894,17.7492,93.3222,266.8165,0,U,67304,999,2836,.2348529E-4,.135E-5,0
PRSC-E03,2026-092A,2026-07-14T03:51:54.148896,15.06806476,.000484,38.0018,290.6061,244.8799,115.1461,0,U,68835,999,1202,.94105E-4,.1319E-4,0
CAS500-2,2026-100AK,2026-07-13T16:03:46.072800,15.20891192,.0007871,97.3873,92.0228,298.6467,61.3977,0,U,69013,999,1083,.16776E-3,.3642E-4,0
