IONOSFERA-M 4           
1 64877U 25155B   26195.16907365  .00000005  00000+0  22073-4 0  9992
2 64877  98.6038 156.3142 0001811 100.8276 259.3105 14.21493158 50238
MICROCARB               
1 64899U 25156A   26195.19176461  .00000265  00000+0  49194-4 0  9996
2 64899  98.0075 271.9080 0017545 173.9140 186.2285 14.72884450 51945
CO3D 3                  
1 64900U 25156B   26195.17496772  .00002411  00000+0  11453-3 0  9998
2 64900  97.4338 273.4799 0001786  94.0426 266.1013 15.20187092 53634
CO3D 4                  
1 64901U 25156C   26195.10930883  .00000695  00000+0  35240-4 0  9991
2 64901  97.4335 273.4152 0001585 155.5050 204.6261 15.20203940 53620
CO3D 2                  
1 64902U 25156D   26195.20760816  .00002377  00000+0  11289-3 0  9995
2 64902  97.4338 273.4108 0001236  88.0839 272.0538 15.20196985 53630
CO3D 1                  
1 64903U 25156E   26195.20776179  .00002425  00000+0  11512-3 0  9998
2 64903  97.4336 273.4110 0001268 100.3060 259.8318 15.20196781 53634
PRSC-S1                 
1 65055U 25164A   26195.17888088  .00002262  00000+0  16173-3 0  9992
2 65055  41.1297 135.7708 0006534 191.4390 168.6276 15.06630085 52505
SENTINEL-6B             
1 66514U 25264A   26195.02202875 -.00000045  00000+0  71166-4 0  9994
2 66514  66.0413  79.4434 0007857 268.7097  91.3018 12.80930131 30600
CAS500-3                
1 66655U 25274F   26194.77100350  .00000599  00000+0  70482-4 0  9990
2 66655  97.7437 122.2175 0006323  42.0337 318.1364 14.88381724 34100
CSG-3                   
1 67304U 26001A   26194.52815792  .00000135  00000+0  23485-4 0  9994
2 67304  97.8894  17.7492 0001518  93.3222 266.8165 14.82151371 28369
PRSC-E03                
1 68835U 26092A   26195.16104339  .00001319  00000+0  94105-4 0  9995
2 68835  38.0018 290.6061 0004840 244.8799 115.1461 15.06806476 12022
CAS500-2                
1 69013U 26100AK  26194.66928325  .00003642  00000+0  16776-3 0  9995
2 69013  97.3873  92.0228 0007871 298.6467  61.3977 15.20891192 10839
